[Satellite]
VERSION=1.1
NAME=BRASILSAT B2
NICKNAME=BRASILSAT B2
TLE1=1 23536U 95016A   15052.44726138 -.00000306  00000-0  00000+0 0  9997
TLE2=2 23536   5.7998  57.8808 0002503 283.0123 267.9280  1.00272203 72925
